IRIDIUM 63              
1 25286U 98021B   25104.93110186  .00000839  00000+0  27951-3 0  9990
2 25286  86.3930 108.6766 0002448  91.4785 268.6693 14.36478567414763
IRIDIUM 69              
1 25319U 98026A   25104.79022615  .00000933  00000+0  28501-3 0  9992
2 25319  86.3939 122.2196 0001492 160.6077 199.5180 14.40889194413937
IRIDIUM 71              
1 25320U 98026B   25104.94445953  .00000876  00000+0  26615-3 0  9995
2 25320  86.3930 116.8554 0000984  23.4713 336.6532 14.41086517414480
IRIDIUM 73              
1 25344U 98032C   25104.92176740  .00001517  00000+0  37390-3 0  9996
2 25344  86.4383  73.6827 0002134 102.4639 257.6806 14.51610059421384
IRIDIUM 82              
1 25467U 98051A   25104.61051528  .00033406  00000+0  10501-2 0  9991
2 25467  86.3676 140.9166 0092444 175.6954 184.5112 15.28656942414233
